     2.10           G: GLONASS NAV DATA                     RINEX VERSION / TYPE
teqc  2015Jun23                         20210406 03:05:46UTCPGM / RUN BY / DATE
Linux 2.4.21-27.ELsmp|Opteron|gcc -static|Linux x86_64|=+   COMMENT
  2021     2    15   -0.000000000000D+00                    CORR TO SYSTEM TIME
                                                            END OF HEADER
10 21  2 16 21 45  0.0-6.643123924732D-05-0.000000000000D+00 7.740000000000D+04
   -2.125339648438D+04 1.329200744629D+00 9.313225746155D-10 0.000000000000D+00
    8.491495605469D+03-7.775669097900D-01 0.000000000000D+00-7.000000000000D+00
    1.116901757812D+04 3.123556137085D+00-1.862645149231D-09 0.000000000000D+00
12 21  2 16 21 45  0.0 2.055736258626D-04 2.728484105319D-12 7.740000000000D+04
   -3.941235351562D+03-2.272199630737D+00 0.000000000000D+00 0.000000000000D+00
    1.461277636719D+04 1.660568237305D+00 1.862645149231D-09-1.000000000000D+00
   -2.050404199219D+04 1.620938301086D+00 9.313225746155D-10 0.000000000000D+00
23 21  2 16 21 45  0.0 3.664772957563D-04 1.818989403546D-12 7.740000000000D+04
    4.019757324219D+03 2.885065078735D-01 9.313225746155D-10 0.000000000000D+00
    2.460497558594D+04 7.250213623047D-01 2.793967723846D-09 3.000000000000D+00
    5.409913085938D+03-3.509887695312D+00-0.000000000000D+00 0.000000000000D+00
24 21  2 16 21 45  0.0 3.181397914886D-05 1.818989403546D-12 7.740000000000D+04
    8.944610351562D+03 2.551603317261D-01 9.313225746155D-10 0.000000000000D+00
    1.678095068359D+04 2.315987586975D+00 2.793967723846D-09 2.000000000000D+00
    1.701987548828D+04-2.421290397644D+00-9.313225746155D-10 0.000000000000D+00
 1 21  2 16 22 15  0.0 7.509347051382D-05 0.000000000000D+00 7.920000000000D+04
    6.303784179688D+02-2.967235565186D+00 9.313225746155D-10 0.000000000000D+00
    1.161701367188D+04-9.219245910645D-01 9.313225746155D-10 1.000000000000D+00
    2.270042626953D+04 5.553312301636D-01-1.862645149231D-09 0.000000000000D+00
12 21  2 16 22 15  0.0 2.055782824755D-04 2.728484105319D-12 7.920000000000D+04
   -7.477353515625D+03-1.638126373291D+00 9.313225746155D-10 0.000000000000D+00
    1.761636816406D+04 1.631970405579D+00 1.862645149231D-09-1.000000000000D+00
   -1.682939697266D+04 2.435433387756D+00 9.313225746155D-10 0.000000000000D+00
10 21  2 16 22 15  0.0-6.643217056990D-05-0.000000000000D+00 7.920000000000D+04
   -1.847470507812D+04 1.713361740112D+00 9.313225746155D-10 0.000000000000D+00
    6.500708007812D+03-1.439991950989D+00-0.000000000000D+00-7.000000000000D+00
    1.628459082031D+04 2.523389816284D+00-1.862645149231D-09 0.000000000000D+00
22 21  2 16 22 15  0.0-9.822845458984D-05-9.094947017729D-13 7.920000000000D+04
   -6.162464355469D+03-3.987255096436D-01 0.000000000000D+00 0.000000000000D+00
    1.473031933594D+04-2.702648162842D+00 1.862645149231D-09-3.000000000000D+00
   -1.993627294922D+04-1.865164756775D+00 9.313225746155D-10 0.000000000000D+00
23 21  2 16 22 15  0.0 3.664819523692D-04 1.818989403546D-12 7.920000000000D+04
    4.511567871094D+03 2.151470184326D-01 9.313225746155D-10 0.000000000000D+00
    2.508851708984D+04-1.872415542603D-01 2.793967723846D-09 3.000000000000D+00
   -1.035373046875D+03-3.605049133301D+00-0.000000000000D+00 0.000000000000D+00
24 21  2 16 22 15  0.0 3.181677311659D-05 1.818989403546D-12 7.920000000000D+04
    9.621083007812D+03 4.607782363892D-01 9.313225746155D-10 0.000000000000D+00
    2.032263867188D+04 1.590225219727D+00 2.793967723846D-09 2.000000000000D+00
    1.206063867188D+04-3.053304672241D+00-9.313225746155D-10 0.000000000000D+00
22 21  2 16 22 45  0.0-9.823124855757D-05-9.094947017729D-13 8.100000000000D+04
   -7.348053222656D+03-9.222469329834D-01 0.000000000000D+00 0.000000000000D+00
    9.606820312500D+03-2.938606262207D+00 0.000000000000D+00-3.000000000000D+00
   -2.248244531250D+04-9.453849792480D-01 1.862645149231D-09 0.000000000000D+00
12 21  2 16 22 45  0.0 2.055838704109D-04 2.728484105319D-12 8.100000000000D+04
   -9.804851074219D+03-9.481439590454D-01 9.313225746155D-10 0.000000000000D+00
    2.032248681641D+04 1.329292297363D+00 9.313225746155D-10-1.000000000000D+00
   -1.185005078125D+04 3.061141967773D+00 0.000000000000D+00 0.000000000000D+00
23 21  2 16 22 45  0.0 3.664856776595D-04 1.818989403546D-12 8.100000000000D+04
    4.646029296875D+03-1.037654876709D-01 9.313225746155D-10 0.000000000000D+00
    2.396905126953D+04-1.036311149597D+00 2.793967723846D-09 3.000000000000D+00
   -7.400632324219D+03-3.421551704407D+00 0.000000000000D+00 0.000000000000D+00
24 21  2 16 22 45  0.0 3.181956708431D-05 1.818989403546D-12 8.100000000000D+04
    1.046114013672D+04 4.307203292847D-01 1.862645149231D-09 0.000000000000D+00
    2.243335742188D+04 7.443666458130D-01 2.793967723846D-09 2.000000000000D+00
    6.169664550781D+03-3.449785232544D+00-0.000000000000D+00 0.000000000000D+00
13 21  2 16 22 45  0.0-5.079992115498D-05-0.000000000000D+00 8.190000000000D+04
    4.019666503906D+03-1.910949707031D+00 0.000000000000D+00 0.000000000000D+00
    1.181352539062D+04 2.368445396423D+00 1.862645149231D-09-2.000000000000D+00
   -2.226748974609D+04 9.128828048706D-01 1.862645149231D-09 0.000000000000D+00
12 21  2 16 23 15  0.0 2.055885270238D-04 2.728484105319D-12 8.280000000000D+04
   -1.092459667969D+04-3.142251968384D-01 9.313225746155D-10 0.000000000000D+00
    2.224766308594D+04 7.711610794067D-01 9.313225746155D-10-1.000000000000D+00
   -5.952094726562D+03 3.449463844299D+00-0.000000000000D+00 0.000000000000D+00
13 21  2 16 23 15  0.0-5.079992115498D-05-0.000000000000D+00 8.280000000000D+04
    1.053245605469D+03-1.370020866394D+00 9.313225746155D-10 0.000000000000D+00
    1.608748535156D+04 2.332656860352D+00 1.862645149231D-09-2.000000000000D+00
   -1.978647509766D+04 1.825996398926D+00 9.313225746155D-10 0.000000000000D+00
23 21  2 16 23 15  0.0 3.664903342724D-04 1.818989403546D-12 8.280000000000D+04
    4.020216796875D+03-6.177444458008D-01 1.862645149231D-09 0.000000000000D+00
    2.146207763672D+04-1.712558746338D+00 1.862645149231D-09 3.000000000000D+00
   -1.319388330078D+04-2.973615646362D+00 9.313225746155D-10 0.000000000000D+00
24 21  2 16 23 15  0.0 3.182142972946D-05 1.818989403546D-12 8.280000000000D+04
    1.102050781250D+04 1.502637863159D-01 1.862645149231D-09 0.000000000000D+00
    2.299950683594D+04-1.063003540039D-01 2.793967723846D-09 2.000000000000D+00
   -1.982529296875D+02-3.579735755920D+00-0.000000000000D+00 0.000000000000D+00
17 21  2 16 23 15  0.0 4.007034003735D-04 2.728484105319D-12 8.397000000000D+04
    1.483132128906D+04 1.131803512573D+00 1.862645149231D-09 0.000000000000D+00
    1.322914990234D+04 1.881344795227D+00 1.862645149231D-09 4.000000000000D+00
    1.598425146484D+04-2.612321853638D+00-9.313225746155D-10 0.000000000000D+00
12 21  2 16 23 45  0.0 2.055941149592D-04 2.728484105319D-12 8.460000000000D+04
   -1.102908349609D+04 1.656827926636D-01 9.313225746155D-10 0.000000000000D+00
    2.298186132812D+04 1.949882507324D-02 0.000000000000D+00-1.000000000000D+00
    4.071479492188D+02 3.570374488831D+00-0.000000000000D+00 0.000000000000D+00
13 21  2 16 23 45  0.0-5.080085247755D-05-0.000000000000D+00 8.460000000000D+04
   -8.912211914062D+02-7.938404083252D-01 9.313225746155D-10 0.000000000000D+00
    2.003682666016D+04 2.007984161377D+00 9.313225746155D-10-2.000000000000D+00
   -1.577843310547D+04 2.598583221436D+00 9.313225746155D-10 0.000000000000D+00
17 21  2 16 23 45  0.0 4.007089883089D-04 2.728484105319D-12 8.460000000000D+04
    1.678288427734D+04 9.913129806519D-01 1.862645149231D-09 0.000000000000D+00
    1.592208251953D+04 1.101736068726D+00 1.862645149231D-09 4.000000000000D+00
    1.072451757812D+04-3.193921089172D+00-9.313225746155D-10 0.000000000000D+00
23 21  2 16 23 45  0.0 3.664949908853D-04 1.818989403546D-12 8.460000000000D+04
    2.357122070312D+03-1.239338874817D+00 9.313225746155D-10 0.000000000000D+00
    1.795692626953D+04-2.135071754456D+00 9.313225746155D-10 3.000000000000D+00
   -1.796741943359D+04-2.295893669128D+00 9.313225746155D-10 0.000000000000D+00
24 21  2 16 23 45  0.0 3.182422369719D-05 9.094947017729D-13 8.460000000000D+04
    1.086946191406D+04-3.498497009277D-01 1.862645149231D-09 0.000000000000D+00
    2.211639990234D+04-8.481073379517D-01 1.862645149231D-09 2.000000000000D+00
   -6.550777832031D+03-3.432734489441D+00 0.000000000000D+00 0.000000000000D+00
 1 21  2 16 23 45  0.0 7.509626448154D-05 0.000000000000D+00 8.496000000000D+04
   -1.511299121094D+04-2.423831939697D+00 0.000000000000D+00 0.000000000000D+00
    1.016180078125D+04 3.345861434937D-01-9.313225746155D-10 1.000000000000D+00
    1.786793896484D+04-2.239275932312D+00-1.862645149231D-09 0.000000000000D+00
